OBJECT_NAME,OBJECT_ID,EPOCH,MEAN_MOTION,ECCENTRICITY,INCLINATION,RA_OF_ASC_NODE,ARG_OF_PERICENTER,MEAN_ANOMALY,EPHEMERIS_TYPE,CLASSIFICATION_TYPE,NORAD_CAT_ID,ELEMENT_SET_NO,REV_AT_EPOCH,BSTAR,MEAN_MOTION_DOT,MEAN_MOTION_DDOT
LQSAT,2015-057A,2026-07-01T05:32:19.536288,14.76800665,.0015726,97.6678,174.9106,223.3532,136.6443,0,U,40958,999,57738,.1132E-3,.747E-5,0
LINGQIAO VIDEO A,2015-057B,2026-07-01T05:53:55.943232,14.77410571,.0015502,97.6618,176.3547,220.2219,139.7846,0,U,40959,999,57748,.86376E-4,.567E-5,0
LINGQIAO VIDEO B,2015-057C,2026-07-01T05:18:53.212608,14.77517619,.0015672,97.6583,177.4912,220.2510,139.7542,0,U,40960,999,57752,.15134E-3,.1033E-4,0
JILIN-1,2015-057D,2026-07-01T03:51:51.702048,14.78183032,.0015963,97.6510,180.8341,213.5066,146.5137,0,U,40961,999,57767,.13649E-3,.942E-5,0
FOX-1A (AO-85),2015-058D,2026-06-30T18:24:50.359392,14.91024498,.0131307,64.7740,236.7799,51.3115,309.9655,0,U,40967,999,11559,.18979989E-3,.204E-4,0
SINOD-D 1,2015-058E,2026-06-30T12:22:20.343072,14.95981461,.01199547,64.7731,217.1713,47.8242,313.2983,0,U,40968,999,11865,.26011595E-3,.3198E-4,0
ELEKTRO-L 2,2015-074A,2026-06-30T03:05:16.247328,1.00271247,.0000706,6.7257,70.3668,276.5342,323.0657,0,U,41105,999,3863,0,-.112E-5,0
DAMPE,2015-078A,2026-07-01T03:46:05.085984,15.30820199,.0013077,97.4553,187.6926,33.4662,326.7402,0,U,41173,999,58668,.39013E-4,.1086E-4,0
ORBCOMM FM114,2015-081A,2026-06-30T19:30:28.564704,14.58874316,.000304,47.0052,297.5845,257.3739,102.6807,0,U,41179,999,55974,.13948E-3,.488E-5,0
ORBCOMM FM110,2015-081D,2026-07-01T00:09:18.005760,14.58901502,.0002817,47.0026,296.1014,156.9550,203.1463,0,U,41182,999,55964,.18839E-3,.72E-5,0
ORBCOMM FM112,2015-081F,2026-06-30T11:55:57.112320,14.58917672,.00041302,46.9971,207.3067,269.8419,90.1993,0,U,41184,999,56089,.10947037E-3,.347E-5,0
ORBCOMM FM113,2015-081G,2026-06-30T11:22:55.178400,14.58869516,.00026286,46.9989,207.7982,270.1275,89.9309,0,U,41185,999,56087,.95535175E-4,.28E-5,0
ORBCOMM FM108,2015-081J,2026-07-01T02:54:44.798112,14.58891278,.0003185,47.0045,116.3155,272.4139,87.6382,0,U,41187,999,56211,.16557E-3,.612E-5,0
ORBCOMM FM117,2015-081K,2026-06-30T19:30:45.129312,14.58877515,.00036864,47.0006,116.4035,275.6842,84.3624,0,U,41188,999,56211,.13355418E-3,.46E-5,0
ORBCOMM FM116,2015-081L,2026-07-01T03:15:25.197120,14.58897279,.0000919,47.0005,204.6682,184.8793,175.2084,0,U,41189,999,56097,.1065E-3,.333E-5,0
CHUBUSAT-2,2016-012B,2026-06-30T12:46:31.210752,15.21013630,.00087578,30.9966,233.8060,213.8737,146.1345,0,U,41338,999,57045,.22860344E-3,.532E-4,0
CHUBUSAT-3,2016-012C,2026-06-30T22:36:00.161856,15.18666546,.000896,31.0041,241.0327,204.1368,155.8853,0,U,41339,999,57029,.17668E-3,.3866E-4,0
HORYU-4,2016-012D,2026-07-01T02:47:19.212576,16.22032858,.0009826,30.9802,335.3658,346.1695,13.8704,0,U,41340,999,57305,.12696E-2,.3107806E-1,-.38471E-5
ZIYUAN 3-02 (ZY 3-02),2016-033A,2026-07-01T04:48:18.061056,15.21312319,.0012761,97.3835,257.7049,236.2969,123.7051,0,U,41556,999,56011,.26624E-3,.5901E-4,0
CARTOSAT-2C,2016-040A,2026-07-01T03:43:54.527808,15.19299280,.0010482,97.4480,241.9409,89.4961,270.7474,0,U,41599,999,55583,.18809E-3,.3907E-4,0
LAPAN-A3,2016-040E,2026-07-01T05:22:08.520672,15.33195064,.0009112,97.1489,177.9090,335.3229,24.7577,0,U,41603,999,55696,.11901E-3,.3745E-4,0
GAOFEN-3,2016-049A,2026-07-01T04:01:29.996256,14.42217210,.0001668,98.4006,189.7424,95.1171,265.0209,0,U,41727,999,52066,.29064E-4,.52E-6,0
PRATHAM,2016-059A,2026-06-30T11:22:44.815584,14.67209727,.00313533,97.8324,177.7481,173.6274,186.5337,0,U,41783,999,52146,.11838852E-3,.624E-5,0
ALSAT-1N,2016-059G,2026-07-01T01:49:38.052768,14.69328217,.0026748,97.8001,184.8085,140.7236,219.5917,0,U,41789,999,52204,.14606E-3,.82E-5,0
CAS-2T & KS-1Q,2016-066G,2026-06-30T22:53:37.252896,14.44738747,.0342823,98.3818,257.5327,87.8545,276.1857,0,U,41847,999,50678,.23741E-3,.1649E-4,0
YUNHAI-1 01,2016-068A,2026-07-01T03:16:26.059872,14.32432754,.0005394,98.5838,193.0110,21.6389,338.5022,0,U,41857,999,50382,.1621E-3,.395E-5,0
RESOURCESAT-2A,2016-074A,2026-07-01T03:32:02.426784,14.21603959,.0003096,98.7531,255.5373,56.8145,303.3329,0,U,41877,999,49628,-.99425E-4,-.262E-5,0
TANSAT,2016-081A,2026-07-01T05:30:47.407968,14.59961864,.0019088,98.5359,182.9024,266.1681,93.7336,0,U,41898,999,50667,.79584E-4,.332E-5,0
JILIN-1 03,2017-002B,2026-07-01T04:12:04.523904,15.41914438,.0007887,97.1941,189.0646,116.0906,244.1154,0,U,41914,999,52401,.39105E-3,.16569E-3,0
CARTOSAT-2D,2017-008A,2026-07-01T04:29:52.423584,15.19310571,.0005225,97.4099,241.2317,179.1689,180.9556,0,U,41948,999,51970,.21454E-3,.4463E-4,0
