{"format":"tle-catalog-v1","generatedAt":"2026-07-01T14:19:31.438Z","count":19018,"entries":[{"name":"ALSAT-1N","line1":"1 41789U 16059G   26182.07613487  .00000820  00000+0  14606-3 0  9994","line2":"2 41789  97.8001 184.8085 0026748 140.7236 219.5917 14.69328217522040"},{"name":"CARTOSAT-2C","line1":"1 41599U 16040A   26182.15549222  .00003907  00000+0  18809-3 0  9995","line2":"2 41599  97.4480 241.9409 0010482  89.4961 270.7474 15.19299280555836"},{"name":"CARTOSAT-2D","line1":"1 41948U 17008A   26182.18741231  .00004463  00000+0  21454-3 0  9993","line2":"2 41948  97.4099 241.2317 0005225 179.1689 180.9556 15.19310571519700"},{"name":"CAS-2T & KS-1Q","line1":"1 41847U 16066G   26181.95390339  .00001649  00000+0  23741-3 0  9991","line2":"2 41847  98.3818 257.5327 0342823  87.8545 276.1857 14.44738747506784"},{"name":"CHUBUSAT-2","line1":"1 41338U 16012B   26181.53230568  .00005320  00000+0  22860-3 0  9999","line2":"2 41338  30.9966 233.8060 0008757 213.8737 146.1345 15.21013630570451"},{"name":"CHUBUSAT-3","line1":"1 41339U 16012C   26181.94166854  .00003866  00000+0  17668-3 0  9994","line2":"2 41339  31.0041 241.0327 0008960 204.1368 155.8853 15.18666546570293"},{"name":"DAMPE","line1":"1 41173U 15078A   26182.15700331  .00001086  00000+0  39013-4 0  9990","line2":"2 41173  97.4553 187.6926 0013077  33.4662 326.7402 15.30820199586687"},{"name":"ELEKTRO-L 2","line1":"1 41105U 15074A   26181.12866027 -.00000112  00000+0  00000+0 0  9991","line2":"2 41105   6.7257  70.3668 0000706 276.5342 323.0657  1.00271247 38632"},{"name":"FOX-1A (AO-85)","line1":"1 40967U 15058D   26181.76724953  .00002040  00000+0  18980-3 0  9990","line2":"2 40967  64.7740 236.7799 0131307  51.3115 309.9655 14.91024498115590"},{"name":"GAOFEN-3","line1":"1 41727U 16049A   26182.16770829  .00000052  00000+0  29064-4 0  9991","line2":"2 41727  98.4006 189.7424 0001668  95.1171 265.0209 14.42217210520667"},{"name":"HORYU-4","line1":"1 41340U 16012D   26182.11619459  .03107806 -38471-5  12696-2 0  9997","line2":"2 41340  30.9802 335.3658 0009826 346.1695  13.8704 16.22032858573058"},{"name":"JILIN-1","line1":"1 40961U 15057D   26182.16101507  .00000942  00000+0  13649-3 0  9998","line2":"2 40961  97.6510 180.8341 0015963 213.5066 146.5137 14.78183032577678"},{"name":"JILIN-1 03","line1":"1 41914U 17002B   26182.17505236  .00016569  00000+0  39105-3 0  9994","line2":"2 41914  97.1941 189.0646 0007887 116.0906 244.1154 15.41914438524012"},{"name":"LAPAN-A3","line1":"1 41603U 16040E   26182.22370973  .00003745  00000+0  11901-3 0  9990","line2":"2 41603  97.1489 177.9090 0009112 335.3229  24.7577 15.33195064556967"},{"name":"LINGQIAO VIDEO A","line1":"1 40959U 15057B   26182.24578638  .00000567  00000+0  86376-4 0  9998","line2":"2 40959  97.6618 176.3547 0015502 220.2219 139.7846 14.77410571577486"},{"name":"LINGQIAO VIDEO B","line1":"1 40960U 15057C   26182.22144922  .00001033  00000+0  15134-3 0  9995","line2":"2 40960  97.6583 177.4912 0015672 220.2510 139.7542 14.77517619577528"},{"name":"LQSAT","line1":"1 40958U 15057A   26182.23078167  .00000747  00000+0  11320-3 0  9994","line2":"2 40958  97.6678 174.9106 0015726 223.3532 136.6443 14.76800665577380"},{"name":"ORBCOMM FM108","line1":"1 41187U 15081J   26182.12135183  .00000612  00000+0  16557-3 0  9994","line2":"2 41187  47.0045 116.3155 0003185 272.4139  87.6382 14.58891278562112"},{"name":"ORBCOMM FM110","line1":"1 41182U 15081D   26182.00645840  .00000720  00000+0  18839-3 0  9997","line2":"2 41182  47.0026 296.1014 0002817 156.9550 203.1463 14.58901502559642"},{"name":"ORBCOMM FM112","line1":"1 41184U 15081F   26181.49718880  .00000347  00000+0  10947-3 0  9993","line2":"2 41184  46.9971 207.3067 0004130 269.8419  90.1993 14.58917672560897"},{"name":"ORBCOMM FM113","line1":"1 41185U 15081G   26181.47424975  .00000280  00000+0  95535-4 0  9994","line2":"2 41185  46.9989 207.7982 0002628 270.1275  89.9309 14.58869516560870"},{"name":"ORBCOMM FM114","line1":"1 41179U 15081A   26181.81283061  .00000488  00000+0  13948-3 0  9991","line2":"2 41179  47.0052 297.5845 0003040 257.3739 102.6807 14.58874316559746"},{"name":"ORBCOMM FM116","line1":"1 41189U 15081L   26182.13570830  .00000333  00000+0  10650-3 0  9997","line2":"2 41189  47.0005 204.6682 0000919 184.8793 175.2084 14.58897279560972"},{"name":"ORBCOMM FM117","line1":"1 41188U 15081K   26181.81302233  .00000460  00000+0  13355-3 0  9996","line2":"2 41188  47.0006 116.4035 0003686 275.6842  84.3624 14.58877515562111"},{"name":"PRATHAM","line1":"1 41783U 16059A   26181.47412981  .00000624  00000+0  11839-3 0  9994","line2":"2 41783  97.8324 177.7481 0031353 173.6274 186.5337 14.67209727521464"},{"name":"RESOURCESAT-2A","line1":"1 41877U 16074A   26182.14725031 -.00000262  00000+0 -99425-4 0  9991","line2":"2 41877  98.7531 255.5373 0003096  56.8145 303.3329 14.21603959496281"},{"name":"SINOD-D 1","line1":"1 40968U 15058E   26181.51551323  .00003198  00000+0  26012-3 0  9993","line2":"2 40968  64.7731 217.1713 0119954  47.8242 313.2983 14.95981461118653"},{"name":"TANSAT","line1":"1 41898U 16081A   26182.22971537  .00000332  00000+0  79584-4 0  9995","line2":"2 41898  98.5359 182.9024 0019088 266.1681  93.7336 14.59961864506671"},{"name":"YUNHAI-1 01","line1":"1 41857U 16068A   26182.13641273  .00000395  00000+0  16210-3 0  9991","line2":"2 41857  98.5838 193.0110 0005394  21.6389 338.5022 14.32432754503829"},{"name":"ZIYUAN 3-02 (ZY 3-02)","line1":"1 41556U 16033A   26182.20020904  .00005901  00000+0  26624-3 0  9997","line2":"2 41556  97.3835 257.7049 0012761 236.2969 123.7051 15.21312319560116"}]}